NORAD_CAT_ID,OBJECT_NAME,OBJECT_TYPE,EPOCH,MEAN_MOTION,ECCENTRICITY,INCLINATION,RA_OF_ASC_NODE,ARG_OF_PERICENTER,MEAN_ANOMALY,BSTAR,MEAN_MOTION_DOT,MEAN_MOTION_DDOT,TLE_LINE0,TLE_LINE1,TLE_LINE2,SEMIMAJOR_AXIS,PERIOD,APOGEE,PERIGEE,DECAYED
55310.0,STARLINK-5309,PAYLOAD,2023-10-19 11:50:53,14.98337494,0.0002767,70.0023,43.6555,270.5901,89.4941,8.6347e-05,9.38e-06,0.0,0 STARLINK-5309,1 55310U 23010AT  23292.49367078  .00000938  00000-0  86347-4 0  9994,2 55310  70.0023  43.6555 0002767 270.5901  89.4941 14.98337494 43129,6950.17,96.107,573.958,570.112,0.0
55310.0,STARLINK-5309,PAYLOAD,2023-10-20 00:39:57,14.98337364,0.000282,70.0022,42.3091,269.1184,90.9652,9.0936e-05,9.92e-06,0.0,0 STARLINK-5309,1 55310U 23010AT  23293.02774763  .00000992  00000-0  90936-4 0  9996,2 55310  70.0022  42.3091 0002820 269.1184  90.9652 14.98337364 42880,6950.17,96.107,573.995,570.075,0.0
55310.0,STARLINK-5309,PAYLOAD,2023-10-20 10:16:47,14.98316493,0.0002973,70.0023,41.2995,266.8475,93.2344,-0.00013879,-1.748e-05,0.0,0 STARLINK-5309,1 55310U 23010AT  23293.42832667 -.00001748  00000-0 -13879-3 0  9990,2 55310  70.0023  41.2995 0002973 266.8475  93.2344 14.98316493 42949,6950.235,96.108,574.166,570.033,0.0
55310.0,STARLINK-5309,PAYLOAD,2023-10-20 11:52:55,14.98316583,0.0002968,70.0022,41.1313,266.702,93.38,-0.00013554,-1.709e-05,0.0,0 STARLINK-5309,1 55310U 23010AT  23293.49508692 -.00001709  00000-0 -13554-3 0  9992,2 55310  70.0022  41.1313 0002968 266.7020  93.3800 14.98316583 43275,6950.234,96.108,574.162,570.037,0.0
55310.0,STARLINK-5309,PAYLOAD,2023-10-21 10:18:45,14.9835665,0.0002546,70.0029,38.7748,256.4645,103.623,0.0001574,1.787e-05,0.0,0 STARLINK-5309,1 55310U 23010AT  23294.42969124  .00001787  00000-0  15740-3 0  9990,2 55310  70.0029  38.7748 0002546 256.4645 103.6230 14.98356650 43098,6950.11,96.105,573.745,570.206,0.0
55310.0,STARLINK-5309,PAYLOAD,2023-10-21 13:31:00,14.98360972,0.0003101,70.0009,38.4359,269.5983,90.482,0.00020725,2.383e-05,0.0,0 STARLINK-5309,1 55310U 23010AT  23294.56320537  .00002383  00000-0  20725-3 0  9996,2 55310  70.0009  38.4359 0003101 269.5983  90.4820 14.98360972 43437,6950.097,96.105,574.117,569.807,0.0
55310.0,STARLINK-5309,PAYLOAD,2023-10-21 16:43:16,14.9836226,0.0003056,70.0009,38.0994,269.9469,90.1339,0.00021744,2.505e-05,0.0,0 STARLINK-5309,1 55310U 23010AT  23294.69672187  .00002505  00000-0  21744-3 0  9999,2 55310  70.0009  38.0994 0003056 269.9469  90.1339 14.98362260 43456,6950.093,96.105,574.082,569.834,0.0
55310.0,STARLINK-5309,PAYLOAD,2023-10-22 10:20:49,14.98305922,0.0003022,70.0003,36.2486,262.526,97.5556,-2.9568e-05,-4.46e-06,0.0,0 STARLINK-5309,1 55310U 23010AT  23295.43112384 -.00000446  00000-0 -29568-4 0  9997,2 55310  70.0003  36.2486 0003022 262.5260  97.5556 14.98305922 43248,6950.267,96.109,574.233,570.032,0.0
55310.0,STARLINK-5309,PAYLOAD,2023-10-22 13:32:50,14.98506909,0.0003849,70.0021,35.9116,252.6843,107.3895,0.0021707,0.00026024,0.0,0 STARLINK-5309,1 55310U 23010AT  23295.56447004  .00026024  00000-0  21707-2 0  9994,2 55310  70.0021  35.9116 0003849 252.6843 107.3895 14.98506909 43589,6949.646,96.096,574.186,568.836,0.0
55310.0,STARLINK-5309,PAYLOAD,2023-10-22 15:09:09,14.98371351,0.0003537,70.0018,35.7431,235.1789,124.9038,0.00028512,3.314e-05,0.0,0 STARLINK-5309,1 55310U 23010AT  23295.63135725  .00003314  00000-0  28512-3 0  9995,2 55310  70.0018  35.7431 0003537 235.1789 124.9038 14.98371351 43273,6950.065,96.104,574.388,569.472,0.0
55310.0,STARLINK-5309,PAYLOAD,2023-10-23 13:34:58,14.98426738,0.0002286,70.0028,33.387,240.3612,119.7319,0.00081609,9.682e-05,0.0,0 STARLINK-5309,1 55310U 23010AT  23296.56595726  .00009682  00000-0  81609-3 0  9999,2 55310  70.0028  33.3870 0002286 240.3612 119.7319 14.98426738 43418,6949.894,96.101,573.347,570.17,0.0
55310.0,STARLINK-5309,PAYLOAD,2023-10-24 10:24:50,14.98321978,0.0002616,70.0027,31.1991,245.7872,114.3014,8.1542e-05,8.8e-06,0.0,0 STARLINK-5309,1 55310U 23010AT  23297.43391939  .00000880  00000-0  81542-4 0  9994,2 55310  70.0027  31.1991 0002616 245.7872 114.3014 14.98321978 43548,6950.218,96.108,573.901,570.265,0.0
55310.0,STARLINK-5309,PAYLOAD,2023-10-24 12:00:58,14.98312971,0.0002823,70.0028,31.0314,256.1612,103.9233,0.00025589,2.96e-05,0.0,0 STARLINK-5309,1 55310U 23010AT  23297.50068091  .00002960  00000-0  25589-3 0  9991,2 55310  70.0028  31.0314 0002823 256.1612 103.9233 14.98312971 43871,6950.246,96.108,574.073,570.148,0.0
55310.0,STARLINK-5309,PAYLOAD,2023-10-25 13:39:07,14.9833489,0.0002267,70.0038,28.339,226.2327,133.8644,-6.7602e-05,-8.99e-06,0.0,0 STARLINK-5309,1 55310U 23010AT  23298.56883649 -.00000899  00000-0 -67602-4 0  9996,2 55310  70.0038  28.3390 0002267 226.2327 133.8644 14.98334890 43713,6950.178,96.107,573.618,570.467,0.0
55310.0,STARLINK-5309,PAYLOAD,2023-10-26 13:41:08,14.98332883,0.0002595,70.0022,25.8142,245.3629,114.726,-4.294e-05,-6.05e-06,0.0,0 STARLINK-5309,1 55310U 23010AT  23299.57023610 -.00000605  00000-0 -42940-4 0  9995,2 55310  70.0022  25.8142 0002595 245.3629 114.7260 14.98332883 44188,6950.184,96.107,573.853,570.245,0.0
55310.0,STARLINK-5309,PAYLOAD,2023-10-26 15:17:19,14.98292755,0.0002464,70.0031,25.6461,266.216,93.8718,-0.00042505,-5.156e-05,0.0,0 STARLINK-5309,1 55310U 23010AT  23299.63703035 -.00005156  00000-0 -42505-3 0  9990,2 55310  70.0031  25.6461 0002464 266.2160  93.8718 14.98292755 43870,6950.308,96.109,573.886,570.461,0.0
55310.0,STARLINK-5309,PAYLOAD,2023-10-26 23:17:56,14.98336687,0.0002899,70.0018,24.8041,269.4061,90.6766,1.8469e-06,-7.1e-07,0.0,0 STARLINK-5309,1 55310U 23010AT  23299.97079155 -.00000071  00000-0  18469-5 0  9990,2 55310  70.0018  24.8041 0002899 269.4061  90.6766 14.98336687 43924,6950.172,96.107,574.052,570.022,0.0
55310.0,STARLINK-5309,PAYLOAD,2023-10-27 12:07:00,14.9833492,0.0002964,70.0014,23.4574,264.5662,95.5159,-8.9697e-07,-1.04e-06,0.0,0 STARLINK-5309,1 55310U 23010AT  23300.50487017 -.00000104  00000-0 -89697-6 0  9992,2 55310  70.0014  23.4574 0002964 264.5662  95.5159 14.98334920 44325,6950.178,96.107,574.103,569.983,0.0
55310.0,STARLINK-5309,PAYLOAD,2023-10-27 15:19:16,14.983386,0.0002559,70.0024,23.1216,268.0665,92.0201,4.0166e-05,3.86e-06,0.0,0 STARLINK-5309,1 55310U 23010AT  23300.63838728  .00000386  00000-0  40166-4 0  9991,2 55310  70.0024  23.1216 0002559 268.0665  92.0201 14.98338600 44349,6950.166,96.106,573.81,570.253,0.0
55310.0,STARLINK-5309,PAYLOAD,2023-10-27 23:19:57,14.98331566,0.0002394,70.0029,22.2791,271.9578,88.1307,-2.2997e-05,-3.67e-06,0.0,0 STARLINK-5309,1 55310U 23010AT  23300.97219311 -.00000367  00000-0 -22997-4 0  9992,2 55310  70.0029  22.2791 0002394 271.9578  88.1307 14.98331566 44072,6950.188,96.107,573.717,570.389,0.0
55310.0,STARLINK-5309,PAYLOAD,2023-10-28 10:32:54,14.98321597,0.0002865,70.0011,21.0999,269.3655,90.7176,-8.9701e-05,-1.163e-05,0.0,0 STARLINK-5309,1 55310U 23010AT  23301.43952037 -.00001163  00000-0 -89701-4 0  9994,2 55310  70.0011  21.0999 0002865 269.3655  90.7176 14.98321597 44144,6950.219,96.108,574.075,570.093,0.0
55310.0,STARLINK-5309,PAYLOAD,2023-10-28 13:45:10,14.98323334,0.0002972,70.0012,20.7648,270.6226,89.4592,-6.4038e-05,-8.57e-06,0.0,0 STARLINK-5309,1 55310U 23010AT  23301.57303881 -.00000857  00000-0 -64038-4 0  9991,2 55310  70.0012  20.7648 0002972 270.6226  89.4592 14.98323334 44485,6950.214,96.107,574.144,570.013,0.0
55310.0,STARLINK-5309,PAYLOAD,2023-10-28 15:21:18,14.98324125,0.0002959,70.0013,20.5965,270.608,89.474,-5.3362e-05,-7.3e-06,0.0,0 STARLINK-5309,1 55310U 23010AT  23301.63979826 -.00000730  00000-0 -53362-4 0  9994,2 55310  70.0013  20.5965 0002959 270.6080  89.4740 14.98324125 44494,6950.211,96.107,574.133,570.019,0.0
55310.0,STARLINK-5309,PAYLOAD,2023-10-29 04:10:22,14.98334658,0.0003078,70.0009,19.2495,273.231,86.8497,4.794e-05,4.79e-06,0.0,0 STARLINK-5309,1 55310U 23010AT  23302.17386794  .00000479  00000-0  47940-4 0  9993,2 55310  70.0009  19.2495 0003078 273.2310  86.8497 14.98334658 44256,6950.178,96.107,574.183,569.904,0.0
55310.0,STARLINK-5309,PAYLOAD,2023-10-29 12:10:54,14.98433422,0.0003295,70.0013,18.4077,265.9235,94.1548,0.0011336,0.00013495,0.0,0 STARLINK-5309,1 55310U 23010AT  23302.50757933  .00013495  00000-0  11336-2 0  9997,2 55310  70.0013  18.4077 0003295 265.9235  94.1548 14.98433422 44307,6949.873,96.1,574.028,569.448,0.0
55310.0,STARLINK-5309,PAYLOAD,2023-10-29 13:47:07,14.9836543,0.0003143,70.0013,18.2396,260.8586,99.2217,0.00036514,4.27e-05,0.0,0 STARLINK-5309,1 55310U 23010AT  23302.57439771  .00004270  00000-0  36514-3 0  9998,2 55310  70.0013  18.2396 0003143 260.8586  99.2217 14.98365430 44632,6950.083,96.105,574.133,569.764,0.0
55310.0,STARLINK-5309,PAYLOAD,2023-10-29 15:23:17,14.9835023,0.0003124,70.0007,18.0707,272.8562,87.2239,0.00018542,2.121e-05,0.0,0 STARLINK-5309,1 55310U 23010AT  23302.64117132  .00002121  00000-0  18542-3 0  9994,2 55310  70.0007  18.0707 0003124 272.8562  87.2239 14.98350230 44324,6950.13,96.106,574.167,569.824,0.0
55310.0,STARLINK-5309,PAYLOAD,2023-10-30 04:12:23,14.9831618,0.0003294,70.0004,16.7241,271.389,88.6892,1.5114e-05,8.7e-07,0.0,0 STARLINK-5309,1 55310U 23010AT  23303.17527599  .00000087  00000-0  15114-4 0  9997,2 55310  70.0004  16.7241 0003294 271.3890  88.6892 14.98316180 44400,6950.236,96.108,574.39,569.811,0.0
55310.0,STARLINK-5309,PAYLOAD,2023-10-30 21:49:52,14.98350117,0.0003304,70.0004,14.8727,277.4155,82.6628,-0.00049497,-5.997e-05,0.0,0 STARLINK-5309,1 55310U 23010AT  23303.90962988 -.00005997  00000-0 -49497-3 0  9990,2 55310  70.0004  14.8727 0003304 277.4155  82.6628 14.98350117 44837,6950.131,96.106,574.292,569.699,0.0
55310.0,STARLINK-5309,PAYLOAD,2023-10-31 12:15:05,14.98331126,0.0002771,70.001,13.3587,267.0565,93.0277,-0.00010177,-1.307e-05,0.0,0 STARLINK-5309,1 55310U 23010AT  23304.51047532 -.00001307  00000-0 -10177-3 0  9991,2 55310  70.0010  13.3587 0002771 267.0565  93.0277 14.98331126 44609,6950.189,96.107,573.98,570.129,0.0
